{"fetched_at":"2026-03-30T13:17:50Z","count":15418,"tles":[{"name":"STARLINK-31677","line1":"1 59749U 24090V   26087.69500484  .00002422  00000+0  97612-4 0  9996","line2":"2 59749  43.0067  76.4283 0002156 275.1443  84.9163 15.27546866106330","category":"Starlink"}]}