{
  "norad_id": 59749,
  "name": "STARLINK-31677",
  "history": [
    {
      "epoch": "2026-03-28T16:40:48.418176",
      "apogee_km": 484.62801773952924,
      "perigee_km": 481.6686081583475,
      "latitude_deg": -19.74394238394733,
      "longitude_deg": -138.3795353602618,
      "semi_major_axis_km": 6861.285312948938,
      "eccentricity": 0.00021566,
      "inclination_deg": 43.0067,
      "raan_deg": 76.4283,
      "arg_perigee_deg": 275.1443,
      "mean_anomaly_deg": 84.9163,
      "mean_motion_rev_day": 15.27546866
    }
  ]
}